NUSAT-50 (NANCY ROMAN)  
1 60493U 24149AB  26068.80227738  .00012094  00000+0  42252-3 0  9994
2 60493  97.3817 150.7693 0002523 238.0469 122.0527 15.29713355 86930
STARLINK-34273          
1 64905U 25157B   26068.18008143  .00039358  00000+0  13347-2 0  9998
2 64905  53.1608 348.1885 0001182  58.1528 301.9587 15.30181902 36054
